[{"OBJECT_NAME":"IRIDE-MS2-HEO-4","OBJECT_ID":"2025-135BG","EPOCH":"2026-03-09T22:17:20.193216","MEAN_MOTION":14.93984506,"ECCENTRICITY":0.00032351,"INCLINATION":97.7591,"RA_OF_ASC_NODE":184.5437,"ARG_OF_PERICENTER":326.5453,"MEAN_ANOMALY":33.5562,"EPHEMERIS_TYPE":0,"CLASSIFICATION_TYPE":"U","NORAD_CAT_ID":64582,"ELEMENT_SET_NO":999,"REV_AT_EPOCH":3908,"BSTAR":0.0003778486,"MEAN_MOTION_DOT":3.97e-5,"MEAN_MOTION_DDOT":0},{"OBJECT_NAME":"CZ-6A DEB","OBJECT_ID":"2022-151BA","EPOCH":"2026-03-08T17:30:58.855968","MEAN_MOTION":14.9439792,"ECCENTRICITY":0.00472807,"INCLINATION":98.5596,"RA_OF_ASC_NODE":128.1704,"ARG_OF_PERICENTER":200.9968,"MEAN_ANOMALY":158.931,"EPHEMERIS_TYPE":0,"CLASSIFICATION_TYPE":"U","NORAD_CAT_ID":54307,"ELEMENT_SET_NO":999,"REV_AT_EPOCH":10452,"BSTAR":0.0069448926,"MEAN_MOTION_DOT":0.00077164,"MEAN_MOTION_DDOT":0}]
